MEAN_MOTION;ECCENTRICITY;INCLINATION;RA_OF_ASC_NODE;ARG_OF_PERICENTER;MEAN_ANOMALY;BSTAR;MEAN_MOTION_DOT;MEAN_MOTION_DDOT;TYPE
14.93276537;0.0012909;97.5128;91.0175;163.5895;196.5745;6.2627E-5;6.03E-6;0;Amateur
14.93277223;0.0012965;97.5127;91.6578;161.4007;198.769;5.7013E-5;5.44E-6;0;Amateur
14.93277689;0.0012999;97.5127;92.0419;160.1515;200.0213;5.4159E-5;5.14E-6;0;Amateur
14.93278613;0.0013047;97.5127;92.6181;158.1725;202.0053;5.199E-5;4.91E-6;0;Amateur
14.93278926;0.001308;97.5126;93.0023;156.9047;203.2764;4.6535E-5;4.34E-6;0;Amateur
14.93279605;0.0013123;97.5126;93.5145;155.1537;205.0318;4.2651E-5;3.93E-6;0;Amateur
14.93279913;0.0013148;97.5126;93.8346;154.0856;206.1025;3.9192E-5;3.57E-6;0;Amateur
14.93280047;0.0013161;97.5126;93.9627;153.6659;206.5233;3.7868E-5;3.43E-6;0;Amateur
14.93280448;0.0013207;97.5126;94.4748;151.9573;208.2361;3.1029E-5;2.72E-6;0;Amateur
14.93280549;0.0013223;97.5125;94.6669;151.3378;208.8572;2.8586E-5;2.46E-6;0;Amateur
14.93283931;0.0013102;97.5123;95.1152;149.1769;211.0324;6.6116E-5;6.39E-6;0;Amateur
14.93281249;0.0013334;97.5125;95.8834;147.3791;212.8255;1.6551E-5;1.2E-6;0;Amateur
14.93281451;0.0013371;97.5125;96.2675;146.1098;214.0979;1.5496E-5;1.09E-6;0;Amateur
14.93281769;0.0013419;97.5125;96.8438;144.27;215.9421;1.5271E-5;1.06E-6;0;Amateur
14.93282202;0.0013468;97.5125;97.356;142.6177;217.5983;2.0255E-5;1.59E-6;0;Amateur
14.93282595;0.0013502;97.5125;97.8041;141.1833;219.036;2.5198E-5;2.1E-6;0;Amateur
14.93282601;0.0013562;97.5125;98.4444;139.178;221.0459;2.4936E-5;2.08E-6;0;Amateur
14.93283273;0.0013631;97.5125;99.2767;136.5821;223.6475;3.6922E-5;3.33E-6;0;Amateur
14.93283296;0.0013635;97.5124;99.3407;136.3788;223.8513;3.7462E-5;3.39E-6;0;Amateur
14.93284152;0.00137;97.5124;100.237;133.5607;226.6754;5.029E-5;4.74E-6;0;Amateur
14.93284595;0.0013708;97.5124;100.3651;133.1552;227.0817;5.7381E-5;5.48E-6;0;Amateur
14.93285506;0.0013759;97.5124;101.1974;130.5062;229.736;6.528E-5;6.31E-6;0;Amateur
14.93285794;0.0013774;97.5123;101.5815;129.2513;230.9932;6.5451E-5;6.32E-6;0;Amateur
14.93286547;0.0013808;97.5123;102.1577;127.4252;232.8227;6.8415E-5;6.64E-6;0;Amateur
14.93286604;0.0013811;97.5123;102.2218;127.2418;233.0064;6.8215E-5;6.61E-6;0;Amateur
14.93287636;0.0013858;97.5123;103.1821;124.1737;236.0799;6.4531E-5;6.23E-6;0;Amateur
14.93287636;0.0013858;97.5123;103.1821;124.1737;236.0799;6.4531E-5;6.23E-6;0;Amateur
14.93287968;0.0013861;97.5122;103.5022;123.1016;237.1537;6.2256E-5;5.99E-6;0;Amateur
14.93288406;0.0013885;97.5122;104.0784;121.2355;239.0227;5.4652E-5;5.19E-6;0;Amateur
14.93288777;0.0013902;97.5121;104.4626;120.0296;240.2305;5.0775E-5;4.79E-6;0;Amateur
14.93289316;0.0013935;97.5121;105.0388;118.188;242.0749;4.3958E-5;4.07E-6;0;Amateur
14.93289749;0.0013947;97.5121;105.4869;116.7971;243.4678;3.9212E-5;3.57E-6;0;Amateur
14.93290544;0.0013985;97.5119;106.3832;113.9252;246.3434;2.9624E-5;2.57E-6;0;Amateur
14.93290596;0.0013988;97.5119;106.4473;113.7175;246.5515;2.8933E-5;2.5E-6;0;Amateur
14.93291272;0.0014018;97.5118;107.3436;110.8987;249.3736;2.1093E-5;1.68E-6;0;Amateur
14.93291289;0.0014023;97.5118;107.4076;110.6794;249.5931;2.0249E-5;1.59E-6;0;Amateur
14.93291617;0.0014055;97.5118;108.3039;107.8783;252.3972;1.2556E-5;7.8E-7;0;Amateur
14.93292529;0.0014085;97.5117;109.2642;104.9219;255.3562;1.874E-5;1.43E-6;0;Amateur
14.93292566;0.0014086;97.5117;109.3282;104.7245;255.5538;1.8912E-5;1.45E-6;0;Amateur
14.93293417;0.0014108;97.5117;110.2245;101.9544;258.3259;2.9434E-5;2.55E-6;0;Amateur
14.93293962;0.0014124;97.5117;110.7367;100.4028;259.8785;3.7405E-5;3.39E-6;0;Amateur
14.93294013;0.0014125;97.5117;110.8007;100.2;260.0814;3.8134E-5;3.46E-6;0;Amateur
14.93294496;0.0014115;97.5116;111.1848;99.0865;261.1953;4.4445E-5;4.12E-6;0;Amateur
14.93295021;0.0014124;97.5117;111.697;97.5167;262.7659;5.1592E-5;4.87E-6;0;Amateur
14.9329506;0.0014123;97.5116;111.761;97.3112;262.9714;5.2102E-5;4.93E-6;0;Amateur
14.93295364;0.0014122;97.5116;112.0811;96.3246;263.9583;5.5427E-5;5.28E-6;0;Amateur
14.93296429;0.001413;97.5116;112.9134;93.7821;266.5016;6.5471E-5;6.33E-6;0;Amateur
14.93296659;0.0014128;97.5116;113.0414;93.391;266.8927;6.7146E-5;6.51E-6;0;Amateur
14.93297797;0.0014124;97.5116;113.8737;90.8312;269.4527;7.1504E-5;6.96E-6;0;Amateur
14.93298037;0.0014121;97.5116;114.0017;90.4405;269.8434;7.2628E-5;7.08E-6;0;Amateur
14.93299485;0.0014121;97.5115;114.834;87.8252;272.4585;7.6181E-5;7.45E-6;0;Amateur
14.93299759;0.0014118;97.5115;114.962;87.4351;272.8485;7.6947E-5;7.53E-6;0;Amateur
14.93301268;0.0014113;97.5114;115.7943;84.852;275.4311;7.6614E-5;7.5E-6;0;Amateur
14.93301472;0.0014109;97.5114;115.9223;84.4555;275.8274;7.5833E-5;7.42E-6;0;Amateur
14.93302997;0.0014098;97.5113;116.8826;81.4739;278.8078;6.9151E-5;6.72E-6;0;Amateur
14.93303112;0.0014097;97.5113;116.9466;81.2711;279.0106;6.8633E-5;6.66E-6;0;Amateur
14.9330444;0.0014085;97.5112;117.8429;78.471;281.8091;5.9825E-5;5.74E-6;0;Amateur
14.93304542;0.0014084;97.5112;117.9069;78.2653;282.0147;5.9212E-5;5.67E-6;0;Amateur
14.93305572;0.0014072;97.5111;118.8032;75.4541;284.8239;4.7036E-5;4.4E-6;0;Amateur
14.93305626;0.0014071;97.5111;118.8672;75.2702;285.0077;4.5981E-5;4.29E-6;0;Amateur
14.93306112;0.0014065;97.5111;119.4433;73.4321;286.8443;3.766E-5;3.41E-6;0;Amateur
14.93306462;0.0014046;97.511;119.8915;72.0808;288.1942;3.2154E-5;2.84E-6;0;Amateur
14.93307157;0.0014015;97.5109;120.7237;69.4992;290.7731;2.6645E-5;2.26E-6;0;Amateur
14.93307485;0.0013993;97.5109;121.2999;67.7416;292.5286;2.3415E-5;1.92E-6;0;Amateur
14.93307791;0.0013976;97.5109;121.684;66.5431;293.7257;2.4273E-5;2.01E-6;0;Amateur
14.93308727;0.0013928;97.5108;122.6442;63.5698;296.695;3.2996E-5;2.92E-6;0;Amateur
14.93309178;0.0013879;97.5108;123.2844;61.6728;298.589;3.8559E-5;3.51E-6;0;Amateur
14.93310175;0.0013805;97.5107;124.2447;58.7726;301.4845;5.0828E-5;4.79E-6;0;Amateur
14.93311337;0.001372;97.5107;125.2049;55.8236;304.4283;6.1733E-5;5.94E-6;0;Amateur
14.93312425;0.0013669;97.5106;126.1011;52.9608;307.286;6.6831E-5;6.47E-6;0;Amateur
14.93313504;0.0013638;97.5106;126.9974;49.9477;310.2938;6.715E-5;6.51E-6;0;Amateur
14.93313969;0.0013616;97.5106;127.3815;48.6986;311.5404;6.6051E-5;6.39E-6;0;Amateur
14.93314541;0.0013589;97.5106;127.9577;46.8312;313.4042;6.1511E-5;5.92E-6;0;Amateur
14.93314602;0.0013581;97.5106;128.0217;46.6309;313.6041;6.0947E-5;5.86E-6;0;Amateur
14.93314995;0.0013557;97.5105;128.3418;45.5944;314.6384;5.9083E-5;5.66E-6;0;Amateur
14.93315171;0.001355;97.5105;128.4698;45.1701;315.0618;5.829E-5;5.58E-6;0;Amateur
14.93316273;0.0013488;97.5104;129.366;42.2812;317.9445;5.1972E-5;4.91E-6;0;Amateur
14.93316729;0.0013465;97.5104;129.8781;40.6105;319.6117;4.5462E-5;4.23E-6;0;Amateur
14.9331707;0.0013424;97.5104;130.2622;39.3655;320.8538;4.0962E-5;3.76E-6;0;Amateur
14.93317142;0.0013417;97.5104;130.3263;39.1571;321.0617;4.0315E-5;3.69E-6;0;Amateur
14.9331774;0.0013355;97.5103;131.2225;36.2327;323.9796;2.8676E-5;2.47E-6;0;Amateur
14.93317864;0.0013341;97.5103;131.3505;35.8189;324.3923;2.7614E-5;2.36E-6;0;Amateur
14.93318421;0.0013273;97.5102;132.1826;33.1081;327.0968;2.0873E-5;1.65E-6;0;Amateur
14.93318761;0.0013227;97.5101;132.7588;31.2324;328.9679;1.7808E-5;1.33E-6;0;Amateur
14.9331903;0.0013188;97.5101;133.1428;29.9646;330.2326;1.7849E-5;1.33E-6;0;Amateur
14.93319319;0.0013142;97.51;133.719;28.0871;332.1056;1.7892E-5;1.34E-6;0;Amateur
14.93319573;0.0013104;97.51;134.103;26.8144;333.3751;1.9991E-5;1.56E-6;0;Amateur
14.93320022;0.0013043;97.5099;134.7431;24.7158;335.4684;2.5811E-5;2.17E-6;0;Amateur
14.93320259;0.0013015;97.5099;135.0632;23.6411;336.5405;2.9162E-5;2.52E-6;0;Amateur
14.93320807;0.001295;97.5098;135.6393;21.7495;338.4273;3.7941E-5;3.44E-6;0;Amateur
14.9332125;0.0012908;97.5098;136.0873;20.2373;339.9356;4.4315E-5;4.11E-6;0;Amateur
14.93321911;0.0012849;97.5098;136.5994;18.5428;341.6258;5.312E-5;5.03E-6;0;Amateur
14.93322276;0.0012803;97.5097;136.9835;17.2274;342.9378;5.6821E-5;5.42E-6;0;Amateur
14.93322405;0.0012793;97.5097;137.1115;16.806;343.3582;5.8134E-5;5.56E-6;0;Amateur
14.93322859;0.0012733;97.5097;137.5595;15.3013;344.859;6.1598E-5;5.92E-6;0;Amateur
14.93323282;0.0012698;97.5096;137.8796;14.1957;345.9617;6.4468E-5;6.23E-6;0;Amateur
14.93323553;0.0012683;97.5097;138.0716;13.5362;346.6196;6.5834E-5;6.37E-6;0;Amateur
14.93324232;0.0012638;97.5096;138.5197;12.01;348.1419;6.9275E-5;6.73E-6;0;Amateur
14.93324471;0.0012619;97.5096;138.7117;11.3378;348.8124;6.9589E-5;6.76E-6;0;Amateur
14.93325295;0.0012561;97.5097;139.4159;8.9088;351.2353;6.6993E-5;6.49E-6;0;Amateur
14.93325458;0.0012546;97.5096;139.5439;8.4437;351.6992;6.6528E-5;6.44E-6;0;Amateur
14.93326611;0.0012458;97.5095;140.504;5.0945;355.04;5.938E-5;5.69E-6;0;Amateur
14.93327041;0.0012427;97.5095;140.76;4.1836;355.9486;5.8982E-5;5.65E-6;0;Amateur
14.93327929;0.0012373;97.5094;141.5281;1.5559;358.5697;5.1231E-5;4.84E-6;0;Amateur
14.93328896;0.0012269;97.5094;142.5523;357.9708;2.146;3.7318E-5;3.38E-6;0;Amateur
14.93330027;0.0012181;97.5094;143.3205;355.2678;4.8425;3.4965E-5;3.13E-6;0;Amateur
14.93330062;0.0012145;97.5093;143.7045;353.9061;6.201;2.6748E-5;2.27E-6;0;Amateur
14.93330862;0.001204;97.5092;144.6006;350.7002;9.3993;2.1372E-5;1.7E-6;0;Amateur
14.93333557;0.0011757;97.509;147.1609;341.4383;18.6406;3.5425E-5;3.18E-6;0;Amateur
14.93333946;0.0011725;97.509;147.4809;340.2395;19.837;3.9694E-5;3.63E-6;0;Amateur
14.93334897;0.0011674;97.509;147.9929;338.3556;21.7169;5.1869E-5;4.9E-6;0;Amateur
14.93335785;0.0011624;97.509;148.505;336.4359;23.6328;6.1496E-5;5.91E-6;0;Amateur
14.93336723;0.0011542;97.5089;149.2731;333.5367;26.5262;6.7887E-5;6.58E-6;0;Amateur
14.93337017;0.0011526;97.5089;149.4651;332.8126;27.2489;6.9476E-5;6.75E-6;0;Amateur
14.93338191;0.0011454;97.5089;150.2972;329.6833;30.3724;7.3883E-5;7.21E-6;0;Amateur
14.93338493;0.0011452;97.5089;150.4892;328.9961;31.0583;7.4523E-5;7.28E-6;0;Amateur
14.93339721;0.0011391;97.5088;151.2573;326.1102;33.9389;7.5589E-5;7.39E-6;0;Amateur
14.9334053;0.0011332;97.5088;151.8333;323.8902;36.1552;7.2511E-5;7.07E-6;0;Amateur
